CAS-2T & KS-1Q          
1 41847U 16066G   21168.12709622  .00000139  00000-0  31833-4 0  9995
2 41847  98.6010 227.2572 0364471 221.2304 136.0830 14.38196722241838
NAYIF-1 (EO-88)         
1 42017U 17008BX  21168.43005085  .00002873  00000-0  10715-3 0  9990
2 42017  97.3154 236.0301 0007745 106.1066 254.1027 15.28198225241251
ZHUHAI-1 02 (CAS-4B)    
1 42759U 17034B   21168.77250117  .00000344  00000-0  33975-4 0  9992
2 42759  43.0159 179.3283 0007906 174.6445 354.3828 15.10230268221193
ZHUHAI-1 01 (CAS-4A)    
1 42761U 17034D   21168.76348911  .00000374  00000-0  35744-4 0  9993
2 42761  43.0159 178.4320 0008304 175.7000 353.4874 15.10317411221197
MAX VALIER SAT          
1 42778U 17036P   21168.69795805  .00001580  00000-0  68717-4 0  9999
2 42778  97.2546 217.3009 0012250 167.0194 193.1361 15.23620581221320
RADFXSAT (FOX-1B)       
1 43017U 17073E   21168.67138725  .00000679  00000-0  58269-4 0  9996
2 43017  97.7071  72.6499 0253603 299.8947  57.7289 14.79568732193151
FOX-1D (AO-92)          
1 43137U 18004AC  21168.66084378  .00001758  00000-0  72720-4 0  9994
2 43137  97.4065 242.6898 0008142 200.1059 159.9859 15.25269261190681
DIWATA-2B               
1 43678U 18084H   21168.85600763  .00000516  00000-0  56930-4 0  9991
2 43678  97.9243 294.1368 0011134  54.9458 305.2806 14.91759061143490
ES'HAIL 2               
1 43700U 18090A   21168.27718912  .00000152  00000-0  00000-0 0  9995
2 43700   0.0161 324.7145 0001218 143.1440 283.5199  1.00274391  9361
FOX-1CLIFF (AO-95)      
1 43770U 18099N   21168.44996257  .00000212  00000-0  24370-4 0  9997
2 43770  97.6646 238.6372 0015742  61.1399 299.1400 14.95328619138454
ITASAT 1                
1 43786U 18099AE  21168.77059198 -.00000017  00000-0  35967-5 0  9993
2 43786  97.6669 239.6290 0016364  53.4334 306.8391 14.95624800138535
JY1SAT (JO-97)          
1 43803U 18099AX  21168.13238340  .00000741  00000-0  71232-4 0  9998
2 43803  97.6627 238.7561 0016222  55.9578 304.3181 14.95868984138443
UWE-4                   
1 43880U 18111E   21168.24989877 -.00000011  00000-0  40458-5 0  9996
2 43880  97.6876  75.9870 0013667 102.0529 258.2225 14.96877032135053
PSAT2 (NO-104)          
1 44354U 19036R   21168.56876937  .00013622  00000-0  17822-3 0  9995
2 44354  28.5299 126.2769 0325373 277.2712  79.1012 15.13505209108988
BRICSAT2 (NO-103)       
1 44355U 19036S   21168.14470306  .00044625  00000-0  48980-3 0  9996
2 44355  28.5262  84.1216 0263475 345.9970  13.3433 15.29588136109380
JAISAT-1                
1 44419U 19038F   21168.43989845  .00001405  00000-0  81298-4 0  9993
2 44419  97.5884 133.1404 0019861 316.2294  43.7362 15.13775544107794
DUCHIFAT-3              
1 44854U 19089C   21168.85986467  .00000565  00000-0  51528-4 0  9994
2 44854  36.9642  98.2295 0007034 147.6923 212.4268 14.99505127 83164
RS-44 & BREEZE-KM R/B   
1 44909U 19096E   21168.54952069  .00000030  00000-0  68734-4 0  9994
2 44909  82.5208 112.7492 0218576  92.8296 269.7842 12.79710222 68830
ORBITAL FACTORY 2 (OF-2)
1 45113U 19071C   21168.21017734  .00002652  00000-0  85874-4 0  9996
2 45113  51.6429  38.6921 0011175 294.0895  65.8918 15.35777776 77134
HUSKYSAT-1 (HO-107)     
1 45119U 19071J   21168.54693797  .00002771  00000-0  89166-4 0  9997
2 45119  51.6429  36.4363 0010597 291.7627  68.2228 15.35806820 77189
BY70-2                  
1 45857U 20042B   21168.84831070  .00001384  00000-0  20341-3 0  9995
2 45857  97.9838 244.5908 0010488 203.4180 156.6550 14.77035765 51601
SALSAT                  
1 46495U 20068K   21168.59414520 -.00000389  00000-0 -23954-4 0  9991
2 46495  97.6950 106.0890 0018812  71.7433 288.5837 15.03454919 39357
BY70-3                  
1 46839U 20079N   21168.84226226  .00003453  00000-0  10832-3 0  9990
2 46839  97.2395 242.6897 0006522 191.7005 276.1362 15.33692187 34260
RADFXSAT-2 (AO-109)     
1 47311U 21002C   21168.55518432  .00001388  00000-0  72013-4 0  9999
2 47311  60.6849 290.8143 0036856  48.2531 312.1696 15.21658557 22882
UVSQ-SAT                
1 47438U 21006AB  21168.44776295  .00001188  00000-0  70571-4 0  9999
2 47438  97.4871 229.6717 0014465  97.7691 262.5183 15.13143901 22051
DIY-1 (ARDUIQUBE)       
1 47963U 21022AH  21168.69362511  .00002273  00000-0  15443-3 0  9991
2 47963  97.5580  71.0229 0018431 308.3004  51.6565 15.07255076 11931
